CLARK SAT-1 (AMBITIOUS) 
1 58613U 98067WE  24034.17451242  .00101867  00000+0  12132-2 0  9995
2 58613  51.6367 262.4898 0009130 190.9384 169.1412 15.60241070  7332
TIANZHOU-7              
1 58811U 24013A   24033.68254381  .00016003  00000+0  17436-3 0  9995
2 58811  41.4672 191.0500 0008690 289.6882  70.3020 15.63006320157888
CZ-7 DEB                
1 58813U 24013C   24018.11402078 -.00002294  72670-5  00000+0 0  9997
2 58813  41.8298 285.9373 0234014 181.6233 328.2070 15.73710950    93
CZ-7 DEB                
1 58814U 24013D   24018.11444661 -.00002240  70950-5  00000+0 0  9992
2 58814  41.6413 286.0086 0240306 187.1577 323.2676 15.72861586    84
AXIOM-3                 
1 58815U 24014A   24033.50125702  .00013598  00000+0  25060-3 0  9993
2 58815  51.6382 267.7346 0002336 192.2353 167.8579 15.49448907437501
CYGNUS NG-20            
1 58898U 24021A   24033.50125702  .00013598  00000+0  25060-3 0  9992
2 58898  51.6382 267.7346 0002336 192.2353 167.8579 15.49448907437502
