[{"OBJECT_NAME":"CLARK SAT-1 (AMBITIOUS)","OBJECT_ID":"1998-067WE","EPOCH":"2024-02-03T04:11:17.873088","MEAN_MOTION":15.6024107,"ECCENTRICITY":0.000913,"INCLINATION":51.6367,"RA_OF_ASC_NODE":262.4898,"ARG_OF_PERICENTER":190.9384,"MEAN_ANOMALY":169.1412,"EPHEMERIS_TYPE":0,"CLASSIFICATION_TYPE":"U","NORAD_CAT_ID":58613,"ELEMENT_SET_NO":999,"REV_AT_EPOCH":733,"BSTAR":0.0012132,"MEAN_MOTION_DOT":0.00101867,"MEAN_MOTION_DDOT":0},{"OBJECT_NAME":"TIANZHOU-7","OBJECT_ID":"2024-013A","EPOCH":"2024-02-02T16:22:51.785184","MEAN_MOTION":15.6300632,"ECCENTRICITY":0.000869,"INCLINATION":41.4672,"RA_OF_ASC_NODE":191.05,"ARG_OF_PERICENTER":289.6882,"MEAN_ANOMALY":70.302,"EPHEMERIS_TYPE":0,"CLASSIFICATION_TYPE":"U","NORAD_CAT_ID":58811,"ELEMENT_SET_NO":999,"REV_AT_EPOCH":15788,"BSTAR":0.00017436,"MEAN_MOTION_DOT":0.00016003,"MEAN_MOTION_DDOT":0},{"OBJECT_NAME":"CZ-7 DEB","OBJECT_ID":"2024-013C","EPOCH":"2024-01-18T02:44:11.395392","MEAN_MOTION":15.7371095,"ECCENTRICITY":0.0234014,"INCLINATION":41.8298,"RA_OF_ASC_NODE":285.9373,"ARG_OF_PERICENTER":181.6233,"MEAN_ANOMALY":328.207,"EPHEMERIS_TYPE":0,"CLASSIFICATION_TYPE":"U","NORAD_CAT_ID":58813,"ELEMENT_SET_NO":999,"REV_AT_EPOCH":9,"BSTAR":0,"MEAN_MOTION_DOT":-0.00002294,"MEAN_MOTION_DDOT":0.000007267},{"OBJECT_NAME":"CZ-7 DEB","OBJECT_ID":"2024-013D","EPOCH":"2024-01-18T02:44:48.187104","MEAN_MOTION":15.72861586,"ECCENTRICITY":0.0240306,"INCLINATION":41.6413,"RA_OF_ASC_NODE":286.0086,"ARG_OF_PERICENTER":187.1577,"MEAN_ANOMALY":323.2676,"EPHEMERIS_TYPE":0,"CLASSIFICATION_TYPE":"U","NORAD_CAT_ID":58814,"ELEMENT_SET_NO":999,"REV_AT_EPOCH":8,"BSTAR":0,"MEAN_MOTION_DOT":-0.0000224,"MEAN_MOTION_DDOT":0.000007095},{"OBJECT_NAME":"AXIOM-3","OBJECT_ID":"2024-014A","EPOCH":"2024-02-02T12:01:48.606528","MEAN_MOTION":15.49448907,"ECCENTRICITY":0.0002336,"INCLINATION":51.6382,"RA_OF_ASC_NODE":267.7346,"ARG_OF_PERICENTER":192.2353,"MEAN_ANOMALY":167.8579,"EPHEMERIS_TYPE":0,"CLASSIFICATION_TYPE":"U","NORAD_CAT_ID":58815,"ELEMENT_SET_NO":999,"REV_AT_EPOCH":43750,"BSTAR":0.0002506,"MEAN_MOTION_DOT":0.00013598,"MEAN_MOTION_DDOT":0},{"OBJECT_NAME":"CYGNUS NG-20","OBJECT_ID":"2024-021A","EPOCH":"2024-02-02T12:01:48.606528","MEAN_MOTION":15.49448907,"ECCENTRICITY":0.0002336,"INCLINATION":51.6382,"RA_OF_ASC_NODE":267.7346,"ARG_OF_PERICENTER":192.2353,"MEAN_ANOMALY":167.8579,"EPHEMERIS_TYPE":0,"CLASSIFICATION_TYPE":"U","NORAD_CAT_ID":58898,"ELEMENT_SET_NO":999,"REV_AT_EPOCH":43750,"BSTAR":0.0002506,"MEAN_MOTION_DOT":0.00013598,"MEAN_MOTION_DDOT":0}]